GLOBALSTAR M084 [+]     
1 38040U 11080A   24041.47736069 -.00000076  00000+0  15325-3 0  9990
2 38040  52.0005 108.4627 0000741  97.5439   7.5422 12.62270741560728
GLOBALSTAR M080 [+]     
1 38041U 11080B   24040.59017603 -.00000077  00000+0  14670-3 0  9992
2 38041  52.0055 112.5977 0000682  83.2533  67.7785 12.62268817560450
GLOBALSTAR M082 [+]     
1 38042U 11080C   24041.38470450 -.00000088  00000+0  90027-4 0  9997
2 38042  52.0081  65.5723 0000814 163.3840 300.4441 12.62265829561439
GLOBALSTAR M092 [+]     
1 38043U 11080D   24040.73865925 -.00000103  00000+0  61802-5 0  9999
2 38043  52.0075 157.8911 0001069 101.8094  63.2077 12.62276369559840
GLOBALSTAR M090 [+]     
1 38044U 11080E   24041.50346047 -.00000083  00000+0  11739-3 0  9994
2 38044  51.9892  59.6528 0000454 151.6909  12.9478 12.62266083561430
GLOBALSTAR M086 [+]     
1 38045U 11080F   24040.50051753 -.00000078  00000+0  14474-3 0  9994
2 38045  51.9902  63.2207 0000573 307.1500 217.0050 12.62267066561217
GLOBALSTAR M097 [+]     
1 39072U 13005A   24041.12413242 -.00000089  00000+0  79801-4 0  9996
2 39072  52.0073 335.3680 0000218  52.6667 307.4219 12.62260415508627
GLOBALSTAR M093 [+]     
1 39073U 13005B   24041.09761772 -.00000079  00000+0  13669-3 0  9995
2 39073  51.9835 329.5410 0000185  34.6820 325.4058 12.62260679508614
